{
  "type": "FeatureCollection",
  "features": [
    {
      "type": "Feature",
      "properties": {
        "norad_id": 59626,
        "name": "LEGION 2",
        "group": "resource",
        "lat": 33.76532593379341,
        "lon": 46.94133682301658,
        "alt_km": 512.7854728918564,
        "timestamp": "2025-12-03T04:52:29.299338+00:00",
        "meta_object_name": "LEGION 2",
        "meta_object_id": "2024-081B",
        "meta_epoch": "2025-12-02T19:13:20.767584",
        "meta_mean_motion": 15.16332574,
        "meta_eccentricity": 0.0006287,
        "meta_inclination": 97.5234,
        "meta_ra_of_asc_node": 51.6117,
        "meta_arg_of_pericenter": 334.1361,
        "meta_mean_anomaly": 25.9556,
        "meta_ephemeris_type": 0,
        "meta_classification_type": "U",
        "meta_norad_cat_id": 59626,
        "meta_element_set_no": 999,
        "meta_rev_at_epoch": 8777,
        "meta_bstar": 0.00033636,
        "meta_mean_motion_dot": 6.458e-05,
        "meta_mean_motion_ddot": 0,
        "tle_line1": "1 59626U 24081B   25336.80093481  .00006458  00000+0  33636-3 0  9991",
        "tle_line2": "2 59626  97.5234  51.6117 0006287 334.1361  25.9556 15.16332574 87773"
      },
      "geometry": {
        "type": "Point",
        "coordinates": [
          46.94133682301658,
          33.76532593379341
        ]
      }
    },
    {
      "type": "Feature",
      "properties": {
        "norad_id": 60182,
        "name": "ALOS-4 (DAICHI-4)",
        "group": "resource",
        "lat": -56.78313018742341,
        "lon": -120.09382404120171,
        "alt_km": 638.7843284215678,
        "timestamp": "2025-12-03T04:52:29.299348+00:00",
        "meta_object_name": "ALOS-4 (DAICHI-4)",
        "meta_object_id": "2024-123A",
        "meta_epoch": "2025-11-30T09:15:12.370176",
        "meta_mean_motion": 14.79468497,
        "meta_eccentricity": 0.000127,
        "meta_inclination": 97.9232,
        "meta_ra_of_asc_node": 69.4089,
        "meta_arg_of_pericenter": 105.4124,
        "meta_mean_anomaly": 254.7228,
        "meta_ephemeris_type": 0,
        "meta_classification_type": "U",
        "meta_norad_cat_id": 60182,
        "meta_element_set_no": 999,
        "meta_rev_at_epoch": 7648,
        "meta_bstar": -8.429942e-06,
        "meta_mean_motion_dot": -1.14e-06,
        "meta_mean_motion_ddot": 0,
        "tle_line1": "1 60182U 24123A   25334.38555984 -.00000114  00000+0 -84299-5 0  9997",
        "tle_line2": "2 60182  97.9232  69.4089 0001270 105.4124 254.7228 14.79468497 76488"
      },
      "geometry": {
        "type": "Point",
        "coordinates": [
          -120.09382404120171,
          -56.78313018742341
        ]
      }
    },
    {
      "type": "Feature",
      "properties": {
        "norad_id": 60452,
        "name": "LEGION 3",
        "group": "resource",
        "lat": 14.185243263590834,
        "lon": 15.90037313230943,
        "alt_km": 522.4407571358361,
        "timestamp": "2025-12-03T04:52:29.299359+00:00",
        "meta_object_name": "LEGION 3",
        "meta_object_id": "2024-146A",
        "meta_epoch": "2025-12-02T19:17:39.184800",
        "meta_mean_motion": 15.15591303,
        "meta_eccentricity": 0.0013732,
        "meta_inclination": 45.0024,
        "meta_ra_of_asc_node": 3.3905,
        "meta_arg_of_pericenter": 142.1902,
        "meta_mean_anomaly": 217.9944,
        "meta_ephemeris_type": 0,
        "meta_classification_type": "U",
        "meta_norad_cat_id": 60452,
        "meta_element_set_no": 999,
        "meta_rev_at_epoch": 7222,
        "meta_bstar": 0.00037653,
        "meta_mean_motion_dot": 7.027e-05,
        "meta_mean_motion_ddot": 0,
        "tle_line1": "1 60452U 24146A   25336.80392575  .00007027  00000+0  37653-3 0  9994",
        "tle_line2": "2 60452  45.0024   3.3905 0013732 142.1902 217.9944 15.15591303 72221"
      },
      "geometry": {
        "type": "Point",
        "coordinates": [
          15.90037313230943,
          14.185243263590834
        ]
      }
    },
    {
      "type": "Feature",
      "properties": {
        "norad_id": 60453,
        "name": "LEGION 4",
        "group": "resource",
        "lat": 10.725721978547439,
        "lon": 103.88281173820897,
        "alt_km": 520.2099046026924,
        "timestamp": "2025-12-03T04:52:29.299369+00:00",
        "meta_object_name": "LEGION 4",
        "meta_object_id": "2024-146B",
        "meta_epoch": "2025-12-02T19:19:00.373152",
        "meta_mean_motion": 15.15649889,
        "meta_eccentricity": 0.000987,
        "meta_inclination": 45.0377,
        "meta_ra_of_asc_node": 95.1052,
        "meta_arg_of_pericenter": 259.4402,
        "meta_mean_anomaly": 100.5366,
        "meta_ephemeris_type": 0,
        "meta_classification_type": "U",
        "meta_norad_cat_id": 60453,
        "meta_element_set_no": 999,
        "meta_rev_at_epoch": 7107,
        "meta_bstar": 0.00043943,
        "meta_mean_motion_dot": 8.253e-05,
        "meta_mean_motion_ddot": 0,
        "tle_line1": "1 60453U 24146B   25336.80486543  .00008253  00000+0  43943-3 0  9995",
        "tle_line2": "2 60453  45.0377  95.1052 0009870 259.4402 100.5366 15.15649889 71070"
      },
      "geometry": {
        "type": "Point",
        "coordinates": [
          103.88281173820897,
          10.725721978547439
        ]
      }
    },
    {
      "type": "Feature",
      "properties": {
        "norad_id": 60989,
        "name": "SENTINEL-2C",
        "group": "resource",
        "lat": -48.4060370639329,
        "lon": -139.94708139123566,
        "alt_km": 796.3051910023296,
        "timestamp": "2025-12-03T04:52:29.299381+00:00",
        "meta_object_name": "SENTINEL-2C",
        "meta_object_id": "2024-157A",
        "meta_epoch": "2025-12-02T19:24:57.724416",
        "meta_mean_motion": 14.30823634,
        "meta_eccentricity": 0.0001155,
        "meta_inclination": 98.5614,
        "meta_ra_of_asc_node": 49.4358,
        "meta_arg_of_pericenter": 102.0662,
        "meta_mean_anomaly": 258.0651,
        "meta_ephemeris_type": 0,
        "meta_classification_type": "U",
        "meta_norad_cat_id": 60989,
        "meta_element_set_no": 999,
        "meta_rev_at_epoch": 6490,
        "meta_bstar": 9.6838e-05,
        "meta_mean_motion_dot": 2.1e-06,
        "meta_mean_motion_ddot": 0,
        "tle_line1": "1 60989U 24157A   25336.80900144  .00000210  00000+0  96838-4 0  9996",
        "tle_line2": "2 60989  98.5614  49.4358 0001155 102.0662 258.0651 14.30823634 64909"
      },
      "geometry": {
        "type": "Point",
        "coordinates": [
          -139.94708139123566,
          -48.4060370639329
        ]
      }
    },
    {
      "type": "Feature",
      "properties": {
        "norad_id": 61735,
        "name": "IONOSFERA-M 1",
        "group": "resource",
        "lat": 52.20152120467876,
        "lon": -164.31677848208523,
        "alt_km": 810.3451119891033,
        "timestamp": "2025-12-03T04:52:29.299391+00:00",
        "meta_object_name": "IONOSFERA-M 1",
        "meta_object_id": "2024-199A",
        "meta_epoch": "2025-12-02T21:52:29.141760",
        "meta_mean_motion": 14.2271044,
        "meta_eccentricity": 0.0001395,
        "meta_inclination": 98.7409,
        "meta_ra_of_asc_node": 206.8346,
        "meta_arg_of_pericenter": 35.7353,
        "meta_mean_anomaly": 324.3918,
        "meta_ephemeris_type": 0,
        "meta_classification_type": "U",
        "meta_norad_cat_id": 61735,
        "meta_element_set_no": 999,
        "meta_rev_at_epoch": 9979,
        "meta_bstar": 6.8099e-05,
        "meta_mean_motion_dot": 1.08e-06,
        "meta_mean_motion_ddot": 0,
        "tle_line1": "1 61735U 24199A   25336.91144840  .00000108  00000+0  68099-4 0  9991",
        "tle_line2": "2 61735  98.7409 206.8346 0001395  35.7353 324.3918 14.22710440 99793"
      },
      "geometry": {
        "type": "Point",
        "coordinates": [
          -164.31677848208523,
          52.20152120467876
        ]
      }
    },
    {
      "type": "Feature",
      "properties": {
        "norad_id": 61736,
        "name": "IONOSFERA-M 2",
        "group": "resource",
        "lat": -54.846033004143635,
        "lon": 14.4175067074868,
        "alt_km": 823.5911405091765,
        "timestamp": "2025-12-03T04:52:29.299401+00:00",
        "meta_object_name": "IONOSFERA-M 2",
        "meta_object_id": "2024-199B",
        "meta_epoch": "2025-12-02T21:01:07.366080",
        "meta_mean_motion": 14.22712479,
        "meta_eccentricity": 0.0001361,
        "meta_inclination": 98.7408,
        "meta_ra_of_asc_node": 206.7118,
        "meta_arg_of_pericenter": 122.3201,
        "meta_mean_anomaly": 237.8109,
        "meta_ephemeris_type": 0,
        "meta_classification_type": "U",
        "meta_norad_cat_id": 61736,
        "meta_element_set_no": 999,
        "meta_rev_at_epoch": 10291,
        "meta_bstar": 6.4826e-05,
        "meta_mean_motion_dot": 1.01e-06,
        "meta_mean_motion_ddot": 0,
        "tle_line1": "1 61736U 24199B   25336.87577970  .00000101  00000+0  64826-4 0  9998",
        "tle_line2": "2 61736  98.7408 206.7118 0001361 122.3201 237.8109 14.22712479102910"
      },
      "geometry": {
        "type": "Point",
        "coordinates": [
          14.4175067074868,
          -54.846033004143635
        ]
      }
    }
  ]
}